start=new Date('2023-07-03T00:00:00.000Z').valueOf();
sats=[{"BSTAR":"0.00006761100000","ARG_OF_PERICENTER":"82.6697","MEAN_MOTION_DOT":"0.00000788","CENTER_NAME":"EARTH","ECCENTRICITY":"0.00009070","FILE":"3947184","PERIOD":"95.438","CLASSIFICATION_TYPE":"U","EPOCH":"2023-07-01T18:07:38.283744","OBJECT_TYPE":"PAYLOAD","NORAD_CAT_ID":"53823","SEMIMAJOR_AXIS":"6917.885","MEAN_MOTION":"15.08838606","REF_FRAME":"TEME","TLE_LINE2":"2 53823  53.2179 347.1807 0000907  82.6697 277.4399 15.08838606 44671","MEAN_ELEMENT_THEORY":"SGP4","EPHEMERIS_TYPE":"0","REV_AT_EPOCH":"4467","MEAN_MOTION_DDOT":"0.0000000000000","RCS_SIZE":"LARGE","MEAN_ANOMALY":"277.4399","OBJECT_NAME":"STARLINK-4748","SITE":"AFETR","LAUNCH_DATE":"2022-09-19","RA_OF_ASC_NODE":"347.1807","OBJECT_ID":"2022-114F","TIME_SYSTEM":"UTC","ELEMENT_SET_NO":"999","GP_ID":"234660340","COUNTRY_CODE":"US","TLE_LINE1":"1 53823U 22114F   23182.75530421  .00000788  00000-0  67611-4 0  9992","APOAPSIS":"540.377","INCLINATION":"53.2179","DECAY_DATE":null,"PERIAPSIS":"539.122"},{"PERIOD":"95.437","CLASSIFICATION_TYPE":"U","EPOCH":"2023-07-01T18:30:50.751072","NORAD_CAT_ID":"53824","OBJECT_TYPE":"PAYLOAD","MEAN_MOTION":"15.08843403","SEMIMAJOR_AXIS":"6917.870","REF_FRAME":"TEME","BSTAR":"-0.00017013000000","ARG_OF_PERICENTER":"82.3816","MEAN_MOTION_DOT":"-0.00002995","CENTER_NAME":"EARTH","ECCENTRICITY":"0.00013120","FILE":"3947184","TIME_SYSTEM":"UTC","ELEMENT_SET_NO":"999","GP_ID":"234660839","TLE_LINE1":"1 53824U 22114G   23182.77142073 -.00002995  00000-0 -17013-3 0  9991","APOAPSIS":"540.643","COUNTRY_CODE":"US","INCLINATION":"53.2163","PERIAPSIS":"538.827","DECAY_DATE":null,"TLE_LINE2":"2 53824  53.2163  32.2265 0001312  82.3816 277.7325 15.08843403 44051","EPHEMERIS_TYPE":"0","MEAN_ELEMENT_THEORY":"SGP4","MEAN_MOTION_DDOT":"0.0000000000000","REV_AT_EPOCH":"4405","MEAN_ANOMALY":"277.7325","RCS_SIZE":"LARGE","SITE":"AFETR","OBJECT_NAME":"STARLINK-4757","LAUNCH_DATE":"2022-09-19","RA_OF_ASC_NODE":"32.2265","OBJECT_ID":"2022-114G"},{"RA_OF_ASC_NODE":"28.6776","OBJECT_ID":"2022-114H","LAUNCH_DATE":"2022-09-19","SITE":"AFETR","OBJECT_NAME":"STARLINK-4751","RCS_SIZE":"LARGE","MEAN_ANOMALY":"275.6233","MEAN_MOTION_DDOT":"0.0000000000000","REV_AT_EPOCH":"4417","MEAN_ELEMENT_THEORY":"SGP4","EPHEMERIS_TYPE":"0","TLE_LINE2":"2 53825  53.2171  28.6776 0001123  84.4887 275.6233 15.08841721 44177","PERIAPSIS":"538.963","DECAY_DATE":null,"COUNTRY_CODE":"US","TLE_LINE1":"1 53825U 22114H   23183.56998381  .00000929  00000-0  76462-4 0  9998","APOAPSIS":"540.517","INCLINATION":"53.2171","ELEMENT_SET_NO":"999","GP_ID":"234679290","TIME_SYSTEM":"UTC","ECCENTRICITY":"0.00011230","FILE":"3947920","CENTER_NAME":"EARTH","MEAN_MOTION_DOT":"0.00000929","ARG_OF_PERICENTER":"84.4887","BSTAR":"0.00007646200000","REF_FRAME":"TEME","MEAN_MOTION":"15.08841721","SEMIMAJOR_AXIS":"6917.875","NORAD_CAT_ID":"53825","OBJECT_TYPE":"PAYLOAD","CLASSIFICATION_TYPE":"U","EPOCH":"2023-07-02T13:40:46.601184","PERIOD":"95.437"},{"GP_ID":"234679287","ELEMENT_SET_NO":"999","TIME_SYSTEM":"UTC","PERIAPSIS":"538.957","DECAY_DATE":null,"TLE_LINE1":"1 53826U 22114J   23183.55156222  .00001590  00000-0  11793-3 0  9998","INCLINATION":"53.2181","COUNTRY_CODE":"US","APOAPSIS":"540.529","EPHEMERIS_TYPE":"0","MEAN_ELEMENT_THEORY":"SGP4","TLE_LINE2":"2 53826  53.2181  28.5680 0001136  95.6764 264.4358 15.08840783 44175","RCS_SIZE":"LARGE","MEAN_ANOMALY":"264.4358","MEAN_MOTION_DDOT":"0.0000000000000","REV_AT_EPOCH":"4417","LAUNCH_DATE":"2022-09-19","SITE":"AFETR","OBJECT_NAME":"STARLINK-4756","OBJECT_ID":"2022-114J","RA_OF_ASC_NODE":"28.5680","PERIOD":"95.438","CLASSIFICATION_TYPE":"U","EPOCH":"2023-07-02T13:14:14.975808","NORAD_CAT_ID":"53826","OBJECT_TYPE":"PAYLOAD","REF_FRAME":"TEME","MEAN_MOTION":"15.08840783","SEMIMAJOR_AXIS":"6917.878","BSTAR":"0.00011793000000","MEAN_MOTION_DOT":"0.00001590","ARG_OF_PERICENTER":"95.6764","CENTER_NAME":"EARTH","ECCENTRICITY":"0.00011360","FILE":"3947920"},{"NORAD_CAT_ID":"53827","OBJECT_TYPE":"PAYLOAD","REF_FRAME":"TEME","MEAN_MOTION":"15.08836862","SEMIMAJOR_AXIS":"6917.890","PERIOD":"95.438","CLASSIFICATION_TYPE":"U","EPOCH":"2023-07-02T13:30:10.242720","CENTER_NAME":"EARTH","ECCENTRICITY":"0.00012310","FILE":"3947920","BSTAR":"0.00011104000000","MEAN_MOTION_DOT":"0.00001480","ARG_OF_PERICENTER":"84.2508","PERIAPSIS":"538.903","DECAY_DATE":null,"TLE_LINE1":"1 53827U 22114K   23183.56261855  .00001480  00000-0  11104-3 0  9993","COUNTRY_CODE":"US","INCLINATION":"53.2178","APOAPSIS":"540.607","ELEMENT_SET_NO":"999","GP_ID":"234679282","TIME_SYSTEM":"UTC","LAUNCH_DATE":"2022-09-19","SITE":"AFETR","OBJECT_NAME":"STARLINK-4764","RA_OF_ASC_NODE":"28.6334","OBJECT_ID":"2022-114K","EPHEMERIS_TYPE":"0","MEAN_ELEMENT_THEORY":"SGP4","TLE_LINE2":"2 53827  53.2178  28.6334 0001231  84.2508 275.8625 15.08836862 44171","RCS_SIZE":"LARGE","MEAN_ANOMALY":"275.8625","MEAN_MOTION_DDOT":"0.0000000000000","REV_AT_EPOCH":"4417"},{"DECAY_DATE":null,"PERIAPSIS":"538.989","TLE_LINE1":"1 53828U 22114L   23181.95811538  .00000309  00000-0  37486-4 0  9995","APOAPSIS":"540.518","COUNTRY_CODE":"US","INCLINATION":"53.2178","GP_ID":"234647125","ELEMENT_SET_NO":"999","TIME_SYSTEM":"UTC","OBJECT_ID":"2022-114L","RA_OF_ASC_NODE":"35.6810","LAUNCH_DATE":"2022-09-19","SITE":"AFETR","OBJECT_NAME":"STARLINK-4760","MEAN_ANOMALY":"266.4248","RCS_SIZE":"LARGE","REV_AT_EPOCH":"4393","MEAN_MOTION_DDOT":"0.0000000000000","MEAN_ELEMENT_THEORY":"SGP4","EPHEMERIS_TYPE":"0","TLE_LINE2":"2 53828  53.2178  35.6810 0001105  93.6870 266.4248 15.08837405 43939","REF_FRAME":"TEME","SEMIMAJOR_AXIS":"6917.888","MEAN_MOTION":"15.08837405","OBJECT_TYPE":"PAYLOAD","NORAD_CAT_ID":"53828","CLASSIFICATION_TYPE":"U","EPOCH":"2023-06-30T22:59:41.168832","PERIOD":"95.438","FILE":"3946658","ECCENTRICITY":"0.00011050","CENTER_NAME":"EARTH","MEAN_MOTION_DOT":"0.00000309","ARG_OF_PERICENTER":"93.6870","BSTAR":"0.00003748600000"},{"EPOCH":"2023-07-01T18:20:14.167104","CLASSIFICATION_TYPE":"U","PERIOD":"95.438","SEMIMAJOR_AXIS":"6917.905","MEAN_MOTION":"15.08831937","REF_FRAME":"TEME","OBJECT_TYPE":"PAYLOAD","NORAD_CAT_ID":"53829","ARG_OF_PERICENTER":"87.7002","MEAN_MOTION_DOT":"-0.00000253","BSTAR":"0.00000220640000","FILE":"3947184","ECCENTRICITY":"0.00009180","CENTER_NAME":"EARTH","TIME_SYSTEM":"UTC","ELEMENT_SET_NO":"999","GP_ID":"234660344","COUNTRY_CODE":"US","TLE_LINE1":"1 53829U 22114M   23182.76405286 -.00000253  00000-0  22064-5 0  9991","INCLINATION":"53.2175","APOAPSIS":"540.405","DECAY_DATE":null,"PERIAPSIS":"539.135","REV_AT_EPOCH":"4405","MEAN_MOTION_DDOT":"0.0000000000000","RCS_SIZE":"LARGE","MEAN_ANOMALY":"272.4095","TLE_LINE2":"2 53829  53.2175  32.1831 0000918  87.7002 272.4095 15.08831937 44059","MEAN_ELEMENT_THEORY":"SGP4","EPHEMERIS_TYPE":"0","RA_OF_ASC_NODE":"32.1831","OBJECT_ID":"2022-114M","SITE":"AFETR","OBJECT_NAME":"STARLINK-4759","LAUNCH_DATE":"2022-09-19"},{"BSTAR":"0.00003012300000","ARG_OF_PERICENTER":"87.5525","MEAN_MOTION_DOT":"0.00000192","CENTER_NAME":"EARTH","FILE":"3947453","ECCENTRICITY":"0.00011790","PERIOD":"95.437","EPOCH":"2023-07-01T22:39:51.232608","CLASSIFICATION_TYPE":"U","NORAD_CAT_ID":"53830","OBJECT_TYPE":"PAYLOAD","MEAN_MOTION":"15.08842337","SEMIMAJOR_AXIS":"6917.873","REF_FRAME":"TEME","TLE_LINE2":"2 53830  53.2179  31.1741 0001179  87.5525 272.5603 15.08842337 44087","MEAN_ELEMENT_THEORY":"SGP4","EPHEMERIS_TYPE":"0","MEAN_MOTION_DDOT":"0.0000000000000","REV_AT_EPOCH":"4408","RCS_SIZE":"LARGE","MEAN_ANOMALY":"272.5603","OBJECT_NAME":"STARLINK-4761","SITE":"AFETR","LAUNCH_DATE":"2022-09-19","OBJECT_ID":"2022-114N","RA_OF_ASC_NODE":"31.1741","TIME_SYSTEM":"UTC","GP_ID":"234667371","ELEMENT_SET_NO":"999","TLE_LINE1":"1 53830U 22114N   23182.94434297  .00000192  00000-0  30123-4 0  9992","APOAPSIS":"540.554","COUNTRY_CODE":"US","INCLINATION":"53.2179","PERIAPSIS":"538.923","DECAY_DATE":null},{"APOAPSIS":"540.511","TLE_LINE1":"1 53831U 22114P   23182.95908300  .00001075  00000-0  85614-4 0  9991","COUNTRY_CODE":"US","INCLINATION":"53.2176","DECAY_DATE":null,"PERIAPSIS":"538.971","TIME_SYSTEM":"UTC","GP_ID":"234666869","ELEMENT_SET_NO":"999","OBJECT_ID":"2022-114P","RA_OF_ASC_NODE":"31.2672","OBJECT_NAME":"STARLINK-4649","SITE":"AFETR","LAUNCH_DATE":"2022-09-19","REV_AT_EPOCH":"4408","MEAN_MOTION_DDOT":"0.0000000000000","MEAN_ANOMALY":"266.2326","RCS_SIZE":"LARGE","TLE_LINE2":"2 53831  53.2176  31.2672 0001113  93.8793 266.2326 15.08841418 44085","MEAN_ELEMENT_THEORY":"SGP4","EPHEMERIS_TYPE":"0","SEMIMAJOR_AXIS":"6917.876","MEAN_MOTION":"15.08841418","REF_FRAME":"TEME","OBJECT_TYPE":"PAYLOAD","NORAD_CAT_ID":"53831","CLASSIFICATION_TYPE":"U","EPOCH":"2023-07-01T23:01:04.771200","PERIOD":"95.437","FILE":"3947453","ECCENTRICITY":"0.00011130","CENTER_NAME":"EARTH","ARG_OF_PERICENTER":"93.8793","MEAN_MOTION_DOT":"0.00001075","BSTAR":"0.00008561400000"},{"SEMIMAJOR_AXIS":"6917.887","MEAN_MOTION":"15.08837933","REF_FRAME":"TEME","OBJECT_TYPE":"PAYLOAD","NORAD_CAT_ID":"53832","CLASSIFICATION_TYPE":"U","EPOCH":"2023-07-02T12:47:42.976320","PERIOD":"95.438","FILE":"3947931","ECCENTRICITY":"0.00013180","CENTER_NAME":"EARTH","ARG_OF_PERICENTER":"102.3719","MEAN_MOTION_DOT":"0.00000707","BSTAR":"0.00006251600000","TLE_LINE1":"1 53832U 22114Q   23183.53313630  .00000707  00000-0  62516-4 0  9990","COUNTRY_CODE":"US","APOAPSIS":"540.663","INCLINATION":"53.2199","DECAY_DATE":null,"PERIAPSIS":"538.840","TIME_SYSTEM":"UTC","GP_ID":"234679292","ELEMENT_SET_NO":"999","RA_OF_ASC_NODE":"28.4551","OBJECT_ID":"2022-114Q","SITE":"AFETR","OBJECT_NAME":"STARLINK-4747","LAUNCH_DATE":"2022-09-19","REV_AT_EPOCH":"4417","MEAN_MOTION_DDOT":"0.0000000000000","MEAN_ANOMALY":"257.7421","RCS_SIZE":"LARGE","TLE_LINE2":"2 53832  53.2199  28.4551 0001318 102.3719 257.7421 15.08837933 44174","EPHEMERIS_TYPE":"0","MEAN_ELEMENT_THEORY":"SGP4"}];
